NORAD_CAT_ID,OBJECT_NAME,OBJECT_TYPE,EPOCH,MEAN_MOTION,ECCENTRICITY,INCLINATION,RA_OF_ASC_NODE,ARG_OF_PERICENTER,MEAN_ANOMALY,BSTAR,MEAN_MOTION_DOT,MEAN_MOTION_DDOT,TLE_LINE0,TLE_LINE1,TLE_LINE2,SEMIMAJOR_AXIS,PERIOD,APOGEE,PERIGEE,DECAYED
54769.0,STARLINK-5404,PAYLOAD,2023-05-29 14:15:50,15.08839402,8.36e-05,53.2169,281.0949,91.7779,268.3309,8.4625e-05,1.059e-05,0.0,0 STARLINK-5404,1 54769U 22175M   23149.59433152  .00001059  00000-0  84625-4 0  9993,2 54769  53.2169 281.0949 0000836  91.7779 268.3309 15.08839402 26671,6917.882,95.438,540.326,539.169,0.0
54769.0,STARLINK-5404,PAYLOAD,2023-05-30 12:31:15,15.08772224,0.0001116,53.2162,276.9332,93.5431,266.5689,0.00077838,0.00012099,0.0,0 STARLINK-5404,1 54769U 22175M   23150.52170851  .00012099  00000-0  77838-3 0  9995,2 54769  53.2162 276.9332 0001116  93.5431 266.5689 15.08772224 26815,6918.088,95.442,540.725,539.181,0.0
54769.0,STARLINK-5404,PAYLOAD,2023-05-30 14:06:38,15.08770241,0.0001122,53.2163,276.6359,92.471,267.6411,0.00081086,0.00012616,0.0,0 STARLINK-5404,1 54769U 22175M   23150.58795024  .00012616  00000-0  81086-3 0  9991,2 54769  53.2163 276.6359 0001122  92.4710 267.6411 15.08770241 24660,6918.094,95.442,540.735,539.182,0.0
54769.0,STARLINK-5404,PAYLOAD,2023-05-31 01:14:19,15.08837483,7.23e-05,53.2162,274.5549,93.2373,266.8702,1.1252e-05,-1.09e-06,0.0,0 STARLINK-5404,1 54769U 22175M   23151.05161625 -.00000109  00000-0  11252-4 0  9992,2 54769  53.2162 274.5549 0000723  93.2373 266.8702 15.08837483 24731,6917.888,95.438,540.253,539.253,0.0
54769.0,STARLINK-5404,PAYLOAD,2023-05-31 13:57:24,15.08839097,7.26e-05,53.216,272.1763,93.5608,266.5467,3.2417e-05,2.28e-06,0.0,0 STARLINK-5404,1 54769U 22175M   23151.58153612  .00000228  00000-0  32417-4 0  9994,2 54769  53.2160 272.1763 0000726  93.5608 266.5467 15.08839097 26974,6917.883,95.438,540.25,539.246,0.0
54769.0,STARLINK-5404,PAYLOAD,2023-05-31 15:32:47,15.08842109,7.85e-05,53.2166,271.8769,89.062,271.0462,5.5832e-05,6.01e-06,0.0,0 STARLINK-5404,1 54769U 22175M   23151.64777366  .00000601  00000-0  55832-4 0  9990,2 54769  53.2166 271.8769 0000785  89.0620 271.0462 15.08842109 26986,6917.874,95.437,540.282,539.196,0.0
54769.0,STARLINK-5404,PAYLOAD,2023-06-01 01:05:06,15.08830589,7.45e-05,53.2165,270.093,100.653,259.4546,0.00015591,2.194e-05,0.0,0 STARLINK-5404,1 54769U 22175M   23152.04521916  .00002194  00000-0  15591-3 0  9999,2 54769  53.2165 270.0930 0000745 100.6530 259.4546 15.08830589 27042,6917.909,95.438,540.29,539.259,0.0
54769.0,STARLINK-5404,PAYLOAD,2023-06-02 00:55:54,15.08838801,7.89e-05,53.2163,265.6323,79.4889,280.6192,8.7244e-05,1.101e-05,0.0,0 STARLINK-5404,1 54769U 22175M   23153.03882055  .00001101  00000-0  87244-4 0  9995,2 54769  53.2163 265.6323 0000789  79.4889 280.6192 15.08838801 25039,6917.884,95.438,540.295,539.203,0.0
54769.0,STARLINK-5404,PAYLOAD,2023-06-02 13:38:58,15.08848887,7.77e-05,53.217,263.2517,83.3343,276.7738,9.21e-05,1.179e-05,0.0,0 STARLINK-5404,1 54769U 22175M   23153.56873470  .00001179  00000-0  92100-4 0  9996,2 54769  53.2170 263.2517 0000777  83.3343 276.7738 15.08848887 27277,6917.853,95.437,540.256,539.181,0.0
54769.0,STARLINK-5404,PAYLOAD,2023-06-03 10:19:00,15.08831866,8.44e-05,53.2165,259.3876,75.9605,284.1481,0.00010325,1.356e-05,0.0,0 STARLINK-5404,1 54769U 22175M   23154.42986586  .00001356  00000-0  10325-3 0  9990,2 54769  53.2165 259.3876 0000844  75.9605 284.1481 15.08831866 25240,6917.905,95.438,540.354,539.186,0.0
54769.0,STARLINK-5404,PAYLOAD,2023-06-03 13:29:46,15.08839359,7.92e-05,53.2167,258.7913,89.9923,270.116,7.508e-05,9.07e-06,0.0,0 STARLINK-5404,1 54769U 22175M   23154.56234146  .00000907  00000-0  75080-4 0  9994,2 54769  53.2167 258.7913 0000792  89.9923 270.1160 15.08839359 27423,6917.882,95.438,540.295,539.199,0.0
54769.0,STARLINK-5404,PAYLOAD,2023-06-04 13:20:32,15.08847349,0.0001088,53.2167,254.33,125.3783,234.7311,9.0882e-06,-1.43e-06,0.0,0 STARLINK-5404,1 54769U 22175M   23155.55593576 -.00000143  00000-0  90882-5 0  9990,2 54769  53.2167 254.3300 0001088 125.3783 234.7311 15.08847349 27571,6917.858,95.437,540.476,538.97,0.0
54769.0,STARLINK-5404,PAYLOAD,2023-06-05 02:03:38,15.08840806,8.37e-05,53.2166,251.9516,98.4114,261.6973,7.9183e-05,9.73e-06,0.0,0 STARLINK-5404,1 54769U 22175M   23156.08585716  .00000973  00000-0  79183-4 0  9996,2 54769  53.2166 251.9516 0000837  98.4114 261.6973 15.08840806 25494,6917.878,95.438,540.322,539.164,0.0
54769.0,STARLINK-5404,PAYLOAD,2023-06-05 13:11:19,15.08849698,7.94e-05,53.2166,249.8712,85.7922,274.3161,0.00011753,1.584e-05,0.0,0 STARLINK-5404,1 54769U 22175M   23156.54953041  .00001584  00000-0  11753-3 0  9994,2 54769  53.2166 249.8712 0000794  85.7922 274.3161 15.08849698 27722,6917.851,95.437,540.265,539.166,0.0
54769.0,STARLINK-5404,PAYLOAD,2023-06-06 08:15:58,15.08831974,9.38e-05,53.2184,246.3086,77.6176,282.4921,-1.9217e-05,-5.93e-06,0.0,0 STARLINK-5404,1 54769U 22175M   23157.34442587 -.00000593  00000-0 -19217-4 0  9996,2 54769  53.2184 246.3086 0000938  77.6176 282.4921 15.08831974 25684,6917.905,95.438,540.419,539.121,0.0
54769.0,STARLINK-5404,PAYLOAD,2023-06-06 11:26:44,15.08832717,0.0001029,53.2186,245.7131,79.5117,280.5991,-2.2363e-05,-6.44e-06,0.0,0 STARLINK-5404,1 54769U 22175M   23157.47690608 -.00000644  00000-0 -22363-4 0  9992,2 54769  53.2186 245.7131 0001029  79.5117 280.5991 15.08832717 27862,6917.903,95.438,540.48,539.056,0.0
54769.0,STARLINK-5404,PAYLOAD,2023-06-07 04:55:58,15.08838277,8.5e-05,53.2166,242.4382,86.7614,273.3476,5.7538e-06,-1.96e-06,0.0,0 STARLINK-5404,1 54769U 22175M   23158.20554272 -.00000196  00000-0  57538-5 0  9994,2 54769  53.2166 242.4382 0000850  86.7614 273.3476 15.08838277 25813,6917.886,95.438,540.339,539.163,0.0
54769.0,STARLINK-5404,PAYLOAD,2023-06-07 08:06:45,15.08838093,8.72e-05,53.2166,241.8434,87.8571,272.2521,1.2929e-05,-8.2e-07,0.0,0 STARLINK-5404,1 54769U 22175M   23158.33802292 -.00000082  00000-0  12929-4 0  9994,2 54769  53.2166 241.8434 0000872  87.8571 272.2521 15.08838093 27998,6917.886,95.438,540.354,539.148,0.0
54769.0,STARLINK-5404,PAYLOAD,2023-06-08 09:32:55,15.08835146,9.38e-05,53.2164,237.0857,86.0213,274.0886,0.00015397,2.163e-05,0.0,0 STARLINK-5404,1 54769U 22175M   23159.39786306  .00002163  00000-0  15397-3 0  9990,2 54769  53.2164 237.0857 0000938  86.0213 274.0886 15.08835146 25997,6917.895,95.438,540.409,539.111,0.0
54769.0,STARLINK-5404,PAYLOAD,2023-06-08 14:19:04,15.08841387,9.84e-05,53.2165,236.1932,82.8159,277.2945,0.0001384,1.916e-05,0.0,0 STARLINK-5404,1 54769U 22175M   23159.59658033  .00001916  00000-0  13840-3 0  9993,2 54769  53.2165 236.1932 0000984  82.8159 277.2945 15.08841387 28185,6917.876,95.437,540.422,539.06,0.0
54769.0,STARLINK-5404,PAYLOAD,2023-06-09 10:59:06,15.08835048,0.0001067,53.2166,232.3269,83.614,276.4973,3.9903e-05,3.47e-06,0.0,0 STARLINK-5404,1 54769U 22175M   23160.45771047  .00000347  00000-0  39903-4 0  9997,2 54769  53.2166 232.3269 0001067  83.6140 276.4973 15.08835048 26153,6917.896,95.438,540.499,539.022,0.0
54769.0,STARLINK-5404,PAYLOAD,2023-06-09 12:34:29,15.08836627,0.0001071,53.2167,232.0293,86.5343,273.5772,4.8089e-05,4.78e-06,0.0,0 STARLINK-5404,1 54769U 22175M   23160.52394943  .00000478  00000-0  48089-4 0  9991,2 54769  53.2167 232.0293 0001071  86.5343 273.5772 15.08836627 28320,6917.891,95.438,540.497,539.015,0.0
54769.0,STARLINK-5404,PAYLOAD,2023-06-10 04:28:20,15.08844013,0.0001054,53.2165,229.0553,86.6663,273.445,5.5059e-05,5.89e-06,0.0,0 STARLINK-5404,1 54769U 22175M   23161.18634593  .00000589  00000-0  55059-4 0  9990,2 54769  53.2165 229.0553 0001054  86.6663 273.4450 15.08844013 26261,6917.868,95.437,540.462,539.004,0.0
54769.0,STARLINK-5404,PAYLOAD,2023-06-10 10:49:52,15.08849651,0.0001021,53.2165,227.866,88.2849,271.826,0.00010086,1.318e-05,0.0,0 STARLINK-5404,1 54769U 22175M   23161.45130064  .00001318  00000-0  10086-3 0  9995,2 54769  53.2165 227.8660 0001021  88.2849 271.8260 15.08849651 28462,6917.851,95.437,540.422,539.01,0.0
54769.0,STARLINK-5404,PAYLOAD,2023-06-11 10:40:39,15.0884024,0.0001096,53.2161,223.4056,88.5099,271.6018,0.00012218,1.657e-05,0.0,0 STARLINK-5404,1 54769U 22175M   23162.44490664  .00001657  00000-0  12218-3 0  9995,2 54769  53.2161 223.4056 0001096  88.5099 271.6018 15.08840240 26452,6917.88,95.438,540.503,538.986,0.0
54769.0,STARLINK-5404,PAYLOAD,2023-06-11 13:51:26,15.08841652,0.000111,53.216,222.8109,88.2657,271.8462,0.00012993,1.781e-05,0.0,0 STARLINK-5404,1 54769U 22175M   23162.57738567  .00001781  00000-0  12993-3 0  9994,2 54769  53.2160 222.8109 0001110  88.2657 271.8462 15.08841652 28632,6917.875,95.437,540.508,538.972,0.0
54769.0,STARLINK-5404,PAYLOAD,2023-06-12 10:31:26,15.08845971,0.0001101,53.2159,218.9456,89.8083,270.3035,7.9042e-05,9.71e-06,0.0,0 STARLINK-5404,1 54769U 22175M   23163.43850198  .00000971  00000-0  79042-4 0  9994,2 54769  53.2159 218.9456 0001101  89.8083 270.3035 15.08845971 28763,6917.862,95.437,540.489,538.965,0.0
54769.0,STARLINK-5404,PAYLOAD,2023-06-13 19:54:33,15.08834959,0.0001002,53.2151,212.7002,84.0605,276.0502,-5.0091e-06,-3.67e-06,0.0,0 STARLINK-5404,1 54769U 22175M   23164.82955133 -.00000367  00000-0 -50091-5 0  9998,2 54769  53.2151 212.7002 0001002  84.0605 276.0502 15.08834959 28970,6917.896,95.438,540.454,539.068,0.0
54769.0,STARLINK-5404,PAYLOAD,2023-06-14 03:51:28,15.08837451,0.0001097,53.2162,211.215,83.5183,276.5934,3.6098e-06,-2.3e-06,0.0,0 STARLINK-5404,1 54769U 22175M   23165.16075214 -.00000230  00000-0  36098-5 0  9998,2 54769  53.2162 211.2150 0001097  83.5183 276.5934 15.08837451 29020,6917.888,95.438,540.512,538.994,0.0
54769.0,STARLINK-5404,PAYLOAD,2023-06-14 19:45:19,15.08857786,0.0001066,53.2162,208.2411,76.6271,283.484,-0.00022286,-3.835e-05,0.0,0 STARLINK-5404,1 54769U 22175M   23165.82314302 -.00003835  00000-0 -22286-3 0  9992,2 54769  53.2162 208.2411 0001066  76.6271 283.4840 15.08857786 29120,6917.826,95.436,540.428,538.954,0.0
